SAUDISAT 1C (SO-50)     
1 27607U 02058C   26196.74605781  .00000379  00000+0  62723-4 0  9991
2 27607  64.5518  40.6207 0074514 257.1595 102.1179 14.83099068268697
SAUDISAT 2              
1 28371U 04025F   26196.53488976  .00000098  00000+0  32916-4 0  9997
2 28371  98.5520 197.2509 0024085 207.1129 152.8812 14.56698381169875
SAUDISAT 3              
1 31118U 07012B   26196.81947156  .00000095  00000+0  23504-4 0  9990
2 31118  98.1467 147.2412 0015635 132.8721 227.3801 14.71440485 31955
PISAT                   
1 41784U 16059B   26196.75210696  .00000451  00000+0  84327-4 0  9992
2 41784  97.8191 195.9792 0030458 113.1166 247.3255 14.69030320523930
FLYING LAPTOP           
1 42831U 17042G   26196.84656788  .00002210  00000+0  17553-3 0  9996
2 42831  97.4804 351.3015 0019678  30.4455 329.7908 15.01316441490751
SALSAT                  
1 46495U 20068K   26196.46428795  .00004051  00000+0  14153-3 0  9999
2 46495  97.8855 201.2595 0009213 191.9024 168.1999 15.30174422319686
