OBJECT_NAME,OBJECT_ID,EPOCH,MEAN_MOTION,ECCENTRICITY,INCLINATION,RA_OF_ASC_NODE,ARG_OF_PERICENTER,MEAN_ANOMALY,EPHEMERIS_TYPE,CLASSIFICATION_TYPE,NORAD_CAT_ID,ELEMENT_SET_NO,REV_AT_EPOCH,BSTAR,MEAN_MOTION_DOT,MEAN_MOTION_DDOT
SAUDISAT 1C (SO-50),2002-058C,2026-07-15T17:54:19.394784,14.83099068,.0074514,64.5518,40.6207,257.1595,102.1179,0,U,27607,999,26869,.62723E-4,.379E-5,0
SAUDISAT 2,2004-025F,2026-07-15T12:50:14.475264,14.56698381,.0024085,98.5520,197.2509,207.1129,152.8812,0,U,28371,999,16987,.32915896E-4,.98E-6,0
SAUDISAT 3,2007-012B,2026-07-15T19:40:02.342784,14.71440485,.0015635,98.1467,147.2412,132.8721,227.3801,0,U,31118,999,3195,.23504E-4,.95E-6,0
PISAT,2016-059B,2026-07-15T18:03:02.041344,14.69030320,.0030458,97.8191,195.9792,113.1166,247.3255,0,U,41784,999,52393,.84327E-4,.451E-5,0
FLYING LAPTOP,2017-042G,2026-07-15T20:19:03.464832,15.01316441,.0019678,97.4804,351.3015,30.4455,329.7908,0,U,42831,999,49075,.17553E-3,.221E-4,0
SALSAT,2020-068K,2026-07-15T11:08:34.478880,15.30174422,.00092137,97.8855,201.2595,191.9024,168.1999,0,U,46495,999,31968,.14152956E-3,.4051E-4,0
